{
  "norad_id": 25757,
  "name": "DLR-TUBSAT",
  "history": [
    {
      "epoch": "2026-03-28T23:12:01.695456Z",
      "apogee_km": 727.221130943868,
      "perigee_km": 708.3911942487402,
      "latitude_deg": -4.8965374635486644e-05,
      "longitude_deg": -93.54540241305529,
      "height_km": 726.6540337899914,
      "semi_major_axis_km": 7095.943162596304,
      "eccentricity": 0.00132681,
      "inclination_deg": 98.6681,
      "raan_deg": 80.8412,
      "arg_perigee_deg": 231.3598,
      "mean_anomaly_deg": 128.6409,
      "mean_motion_rev_day": 14.52404446
    },
    {
      "epoch": "2026-03-29T05:48:50.587488Z",
      "apogee_km": 727.2246717882526,
      "perigee_km": 708.386363592288,
      "latitude_deg": -2.3264532544919373e-05,
      "longitude_deg": 167.26376687455124,
      "height_km": 726.7722168283868,
      "semi_major_axis_km": 7095.94251769027,
      "eccentricity": 0.0013274,
      "inclination_deg": 98.6681,
      "raan_deg": 81.1257,
      "arg_perigee_deg": 230.4491,
      "mean_anomaly_deg": 129.5531,
      "mean_motion_rev_day": 14.52404644
    },
    {
      "epoch": "2026-03-30T04:57:41.686272Z",
      "apogee_km": 727.2531358805172,
      "perigee_km": 708.3555087885288,
      "latitude_deg": -4.906335051111509e-05,
      "longitude_deg": -179.90387536201717,
      "height_km": 727.1792295344502,
      "semi_major_axis_km": 7095.941322334523,
      "eccentricity": 0.00133158,
      "inclination_deg": 98.6682,
      "raan_deg": 82.1216,
      "arg_perigee_deg": 227.3155,
      "mean_anomaly_deg": 132.6918,
      "mean_motion_rev_day": 14.52405011
    },
    {
      "epoch": "2026-03-30T13:13:42.790944Z",
      "apogee_km": 727.2612417455393,
      "perigee_km": 708.3463020240033,
      "latitude_deg": 3.7577230402747706e-05,
      "longitude_deg": 56.10769655982578,
      "height_km": 727.3235505388134,
      "semi_major_axis_km": 7095.9407718847715,
      "eccentricity": 0.0013328,
      "inclination_deg": 98.6681,
      "raan_deg": 82.4773,
      "arg_perigee_deg": 226.1592,
      "mean_anomaly_deg": 133.8502,
      "mean_motion_rev_day": 14.5240518
    },
    {
      "epoch": "2026-03-30T21:29:43.888704Z",
      "apogee_km": 727.2749028037779,
      "perigee_km": 708.3317224639759,
      "latitude_deg": -2.7876566842815726e-05,
      "longitude_deg": -67.88067957649433,
      "height_km": 727.4611548258332,
      "semi_major_axis_km": 7095.940312633877,
      "eccentricity": 0.00133479,
      "inclination_deg": 98.6682,
      "raan_deg": 82.833,
      "arg_perigee_deg": 225.0734,
      "mean_anomaly_deg": 134.9378,
      "mean_motion_rev_day": 14.52405321
    },
    {
      "epoch": "2026-03-31T17:20:10.522464Z",
      "apogee_km": 727.2992634874145,
      "perigee_km": 708.3048538152161,
      "latitude_deg": 4.720234744903991e-06,
      "longitude_deg": -5.452887277774667,
      "height_km": 727.7889650405405,
      "semi_major_axis_km": 7095.939058651315,
      "eccentricity": 0.0013384,
      "inclination_deg": 98.6682,
      "raan_deg": 83.6866,
      "arg_perigee_deg": 222.3584,
      "mean_anomaly_deg": 137.6578,
      "mean_motion_rev_day": 14.52405706
    },
    {
      "epoch": "2026-04-01T16:29:01.578912Z",
      "apogee_km": 727.3303374464886,
      "perigee_km": 708.2720666234618,
      "latitude_deg": 5.6554360440925e-06,
      "longitude_deg": 7.379643927419479,
      "height_km": 728.1453247915285,
      "semi_major_axis_km": 7095.938202034975,
      "eccentricity": 0.0013429,
      "inclination_deg": 98.6683,
      "raan_deg": 84.6825,
      "arg_perigee_deg": 219.2891,
      "mean_anomaly_deg": 140.733,
      "mean_motion_rev_day": 14.52405969
    },
    {
      "epoch": "2026-04-02T17:17:04.827264Z",
      "apogee_km": 727.3643918684302,
      "perigee_km": 708.2351655004522,
      "latitude_deg": -3.327174767575457e-05,
      "longitude_deg": -4.585420946855303,
      "height_km": 728.5052889805957,
      "semi_major_axis_km": 7095.9367786844405,
      "eccentricity": 0.0013479,
      "inclination_deg": 98.6683,
      "raan_deg": 85.7495,
      "arg_perigee_deg": 216.0129,
      "mean_anomaly_deg": 144.0158,
      "mean_motion_rev_day": 14.52406406
    },
    {
      "epoch": "2026-04-02T22:14:41.455680Z",
      "apogee_km": 727.3707982208598,
      "perigee_km": 708.2259645618651,
      "latitude_deg": 3.673192965914785e-05,
      "longitude_deg": -78.97835694859289,
      "height_km": 728.5725197795192,
      "semi_major_axis_km": 7095.935381391362,
      "eccentricity": 0.001349,
      "inclination_deg": 98.6683,
      "raan_deg": 85.9629,
      "arg_perigee_deg": 215.3733,
      "mean_anomaly_deg": 144.6568,
      "mean_motion_rev_day": 14.52406835
    },
    {
      "epoch": "2026-04-03T21:23:32.451648Z",
      "apogee_km": 727.4038299239801,
      "perigee_km": 708.1894607990707,
      "latitude_deg": 1.048458489911324e-05,
      "longitude_deg": -66.1454701841302,
      "height_km": 728.8870310944766,
      "semi_major_axis_km": 7095.933645361525,
      "eccentricity": 0.0013539,
      "inclination_deg": 98.6685,
      "raan_deg": 86.9589,
      "arg_perigee_deg": 212.287,
      "mean_anomaly_deg": 147.7497,
      "mean_motion_rev_day": 14.52407368
    },
    {
      "epoch": "2026-04-04T05:39:33.513120Z",
      "apogee_km": 727.4178237194255,
      "perigee_km": 708.1746462168448,
      "latitude_deg": 2.840484090065169e-05,
      "longitude_deg": 169.86629202047217,
      "height_km": 728.9983327281082,
      "semi_major_axis_km": 7095.933234968135,
      "eccentricity": 0.00135593,
      "inclination_deg": 98.6686,
      "raan_deg": 87.3146,
      "arg_perigee_deg": 211.1588,
      "mean_anomaly_deg": 148.8804,
      "mean_motion_rev_day": 14.52407494
    },
    {
      "epoch": "2026-04-05T13:04:25.541184Z",
      "apogee_km": 727.4631304840623,
      "perigee_km": 708.1262908166373,
      "latitude_deg": 5.0859344698140916e-05,
      "longitude_deg": 58.710957603108746,
      "height_km": 729.3728492918801,
      "semi_major_axis_km": 7095.9317106503495,
      "eccentricity": 0.00136253,
      "inclination_deg": 98.6687,
      "raan_deg": 88.6662,
      "arg_perigee_deg": 207.0609,
      "mean_anomaly_deg": 152.9877,
      "mean_motion_rev_day": 14.52407962
    },
    {
      "epoch": "2026-04-05T21:20:26.588832Z",
      "apogee_km": 727.4789447110279,
      "perigee_km": 708.1098903137863,
      "latitude_deg": -5.9997412122014746e-05,
      "longitude_deg": -65.27720329074103,
      "height_km": 729.4679546881898,
      "semi_major_axis_km": 7095.931417512407,
      "eccentricity": 0.0013648,
      "inclination_deg": 98.6687,
      "raan_deg": 89.0219,
      "arg_perigee_deg": 205.9856,
      "mean_anomaly_deg": 154.0654,
      "mean_motion_rev_day": 14.52408052
    },
    {
      "epoch": "2026-04-05T22:59:38.798880Z",
      "apogee_km": 727.480726889612,
      "perigee_km": 708.1078410539885,
      "latitude_deg": 2.767072062857827e-05,
      "longitude_deg": -90.07489429215224,
      "height_km": 729.485267818754,
      "semi_major_axis_km": 7095.9312839717995,
      "eccentricity": 0.00136507,
      "inclination_deg": 98.6687,
      "raan_deg": 89.093,
      "arg_perigee_deg": 205.7721,
      "mean_anomaly_deg": 154.2795,
      "mean_motion_rev_day": 14.52408093
    },
    {
      "epoch": "2026-04-07T11:22:07.396608Z",
      "apogee_km": 727.5378570252478,
      "perigee_km": 708.0469001267629,
      "latitude_deg": 4.792072520931481e-06,
      "longitude_deg": 84.37719586131992,
      "height_km": 729.857796813018,
      "semi_major_axis_km": 7095.929378576006,
      "eccentricity": 0.00137339,
      "inclination_deg": 98.6687,
      "raan_deg": 90.6581,
      "arg_perigee_deg": 201.0029,
      "mean_anomaly_deg": 159.0603,
      "mean_motion_rev_day": 14.52408678
    },
    {
      "epoch": "2026-04-08T13:49:22.707264Z",
      "apogee_km": 727.5845224666846,
      "perigee_km": 707.997915640759,
      "latitude_deg": -2.989902069883576e-06,
      "longitude_deg": 47.61516175551521,
      "height_km": 730.0950503372194,
      "semi_major_axis_km": 7095.9282190537215,
      "eccentricity": 0.00138013,
      "inclination_deg": 98.6687,
      "raan_deg": 91.7963,
      "arg_perigee_deg": 197.5589,
      "mean_anomaly_deg": 162.513,
      "mean_motion_rev_day": 14.52409034
    },
    {
      "epoch": "2026-04-09T12:58:13.602144Z",
      "apogee_km": 727.6277288664969,
      "perigee_km": 707.9521426590145,
      "latitude_deg": 4.8934520510190663e-05,
      "longitude_deg": 60.44835615357384,
      "height_km": 730.2806146491529,
      "semi_major_axis_km": 7095.926935762755,
      "eccentricity": 0.0013864,
      "inclination_deg": 98.6686,
      "raan_deg": 92.7922,
      "arg_perigee_deg": 194.4993,
      "mean_anomaly_deg": 165.5806,
      "mean_motion_rev_day": 14.52409428
    },
    {
      "epoch": "2026-04-10T12:07:04.466784Z",
      "apogee_km": 727.6677665081625,
      "perigee_km": 707.9098706588993,
      "latitude_deg": -4.444876966814153e-06,
      "longitude_deg": 73.28179320546843,
      "height_km": 730.4346314965911,
      "semi_major_axis_km": 7095.925818583531,
      "eccentricity": 0.0013922,
      "inclination_deg": 98.6686,
      "raan_deg": 93.7882,
      "arg_perigee_deg": 191.51,
      "mean_anomaly_deg": 168.5778,
      "mean_motion_rev_day": 14.52409771
    },
    {
      "epoch": "2026-04-11T11:15:55.332288Z",
      "apogee_km": 727.710715707165,
      "perigee_km": 707.8662505011171,
      "latitude_deg": 1.0618236040632499e-05,
      "longitude_deg": 86.11541689825212,
      "height_km": 730.5666978500363,
      "semi_major_axis_km": 7095.925483104141,
      "eccentricity": 0.0013983,
      "inclination_deg": 98.6687,
      "raan_deg": 94.7844,
      "arg_perigee_deg": 188.4912,
      "mean_anomaly_deg": 171.6048,
      "mean_motion_rev_day": 14.52409874
    }
  ]
}